#cP2022 11 16  0  0  0.00000000      96 ORBIT IGb14 HLM  IGS
## 2236 259200.00000000   900.00000000 59899 0.0000000000000
+   31   G01G02G03G04G05G06G07G08G09G10G11G12G13G14G15G16G17
+        G18G19G20G21G22G23G24G25G26G27G29G30G31G32  0  0  0
+          0  0  0  0  0  0  0  0  0  0  0  0  0  0  0  0  0
+          0  0  0  0  0  0  0  0  0  0  0  0  0  0  0  0  0
+          0  0  0  0  0  0  0  0  0  0  0  0  0  0  0  0  0
++         2  2  2  3  2  3  2  2  2  2  3  2  2  3  2  2  2
++         3  2  2  2  2  3  2  2  2  2  2  2  2  2  0  0  0
++         0  0  0  0  0  0  0  0  0  0  0  0  0  0  0  0  0
++         0  0  0  0  0  0  0  0  0  0  0  0  0  0  0  0  0
++         0  0  0  0  0  0  0  0  0  0  0  0  0  0  0  0  0
%c G  cc GPS ccc cccc cccc cccc cccc ccccc ccccc ccccc ccccc
%c cc cc ccc ccc cccc cccc cccc cccc ccccc ccccc ccccc ccccc
%f  1.2500000  1.025000000  0.00000000000  0.000000000000000
%f  0.0000000  0.000000000  0.00000000000  0.000000000000000
%i    0    0    0    0      0      0      0      0         0
%i    0    0    0    0      0      0      0      0         0
/* RAPID ORBIT COMBINATION FROM WEIGHTED AVERAGE OF:        
/* cod emr esa gfz jpl ngs sio usn whu                      
/* REFERENCED TO IGS TIME (IGST) AND TO WEIGHTED MEAN POLE: 
/* PCV:IGS14_2233 OL/AL:FES2004  NONE     Y  ORB:CMB CLK:CMB
*  2022 11 16 21 45  0.00000000
PG01 -11885.835214 -13340.429766 -20076.067824    250.793780  8  5  2 123       
PG02  14655.536212  12033.333935  19148.227534   -637.540115  9  6  6 135       
PG03 -11937.492397 -23686.919997  -2370.991334   -373.074552  5  3  6 123       
PG04  -4301.196801 -18114.864737  18904.527828    -85.229517  5  9  9 115       
PG05   2952.859580  22332.644740  13799.828731   -104.567644  7  8  4 146       
PG06 -23732.157947   6578.711240  10112.486632    519.812162  7  3  7 106       
PG07 -24063.922930  -7058.084774   9882.555411    286.552806  7  7  6 117       
PG08   3780.784490 -23565.528287 -11291.544660    -94.142751  7  9  7 117       
PG09 -13350.372730  -7493.760467  21623.420301   -267.655969  5  7  4 116       
PG10  16916.091493   1665.117598 -20334.704556    -12.201674  3  4  4 111       
PG11 -14332.462373  12269.961526  18685.800402    -40.860849  9  8  7 123       
PG12   9712.546953  24617.530777  -3117.948974   -305.070031  8  7  5 125       
PG13 -12273.711724  22704.305688  -6011.145247    425.809817  7  6  2  80       
PG14 -17790.773597  -3934.189877 -19355.772639    -82.065014 11  9  8 124       
PG15   -370.925209  23938.561520 -11634.603808    -11.845225  9  4  8 161       
PG16   3714.523933 -19633.456468  16977.443444   -526.889260  4  5  7 108       
PG17 -18446.127484   6396.737642 -17600.787041    678.466174  6  5  5 122       
PG18  24914.502314   5560.942323   7599.692551    -24.541347 11  9  9 132       
PG19 -19326.974946  15170.473852  -9978.509100    238.274555  6  4  3 114       
PG20  -7251.456697  14844.480017  20854.012786    469.606079  5  5  5 148       
PG21  -3202.320235 -14672.549654 -21331.422718    155.899777  7  5  8 153       
PG22  18044.136580 -18022.855240  -6663.351918    365.961965  6  4  7 114       
PG23  18968.485341  12192.663570 -14150.249773     -0.986268 10  6  7 114       
PG24   8054.626774  14824.157187 -20925.079237     56.074068  6  4  7  93       
PG25  16890.167363  19589.688877   6346.889295    393.268200  6  7  5 119       
PG26  11445.189272 -10963.740381  21191.984146    235.980012  7  4  6 112       
PG27  12429.313784 -23208.221631   -994.169118    176.375370  2  5  6 127       
PG29  11050.024973   9997.976466  21938.912177   -567.684752  8  5  8 124       
PG30 -26611.239952   1083.666162  -1798.517606   -536.638882  7  7  6 114       
PG31  23335.438426  -7213.032770  10823.376174   -200.404720  7  5  3 117       
PG32  18470.782938  -9752.911094 -16137.696701   -298.518722  4  7  7 113       
*  2022 11 16 22  0  0.00000000
PG01  -9604.470862 -13434.883155 -21190.330004    250.788702  8  5  3 134       
PG02  12533.968508  12384.302888  20447.791932   -637.538666  8  6  6 138       
PG03 -11547.261896 -23438.539497  -5208.016558   -373.076204  6  3  6 132       
PG04  -3141.589518 -19842.619201  17323.325368    -85.223478  6  8  9 117       
PG05   1811.494963  21018.019144  15888.717355   -104.569005  7  7  4 146       
PG06 -24727.635876   6452.914894   7444.724924    519.820392  9  2  7 113       
PG07 -22872.111089  -7299.141145  12299.146663    286.548343  7  7  7 124       
PG08   4519.485681 -24484.053935  -8738.937148    -94.145401  7  8  7 120       
PG09 -12215.111311  -9700.724336  21412.936070   -267.650811  5  8  4 123       
PG10  18061.082845   3631.832807 -19092.418073    -12.203615  4  4  4 105       
PG11 -16373.608557  12094.874306  17047.363176    -40.866298 10  8  8 123       
PG12   9289.764644  24293.465565  -5919.458932   -305.074165  8  6  5 130       
PG13 -12765.634114  22977.693860  -3193.038178    425.816403  7  6  2  95       
PG14 -18742.538516  -5849.330860 -17931.685668    -82.060341 12  9  9 132       
PG15  -1055.779627  24908.971316  -9179.848254    -11.842505  9  3  8 154       
PG16   4816.360558 -17835.251583  18621.409423   -526.888993  5  5  7 107       
PG17 -17410.773113   4475.855549 -19136.581596    678.469376  7  5  5 133       
PG18  23903.466411   5770.011823  10223.492392    -24.554018 11  9  9 135       
PG19 -18784.486314  14017.639079 -12472.063884    238.279255  6  4  4 123       
PG20  -8885.202658  13065.036948  21385.772979    469.603992  5  5  4 140       
PG21   -645.645155 -14949.213770 -21302.126817    155.898851  6  5  8 129       
PG22  17735.849812 -17066.906534  -9327.403567    365.969140  6  4  6 119       
PG23  19646.854286  13519.117102 -11841.317928     -0.986020 11  7  6 113       
PG24   5718.678986  15146.605400 -21426.954272     56.059650  6  4  7 120       
PG25  17004.913769  20226.863543   3594.099840    393.271597  6  8  6 126       
PG26  12901.842855  -8978.100214  21318.535504    235.981124  7  4  6 114       
PG27  12624.547856 -23019.065360   1903.305552    176.367473  3  5  6 130       
PG29   9692.789113  12087.639913  21518.518935   -567.687335  8  4  8 133       
PG30 -26674.039185    778.820235    991.404222   -536.638517  6  7  6 129       
PG31  24440.137218  -7012.352300   8295.335047   -200.405536  7  5  3 111       
PG32  17714.408253  -7913.111279 -17898.864863   -298.530090  4  7  7 122       
*  2022 11 16 22 15  0.00000000
PG01  -7226.185442 -13669.718918 -21952.238282    250.783625  8  6  4 122       
PG02  10315.552825  12870.506032  21412.102173   -637.537097  8  6  5 141       
PG03 -10961.442254 -22954.966992  -7956.242145   -373.077866  7  3  6 132       
PG04  -2160.584376 -21453.273497  15442.909994    -85.217463  7  8  9 118       
PG05    465.855647  19588.935032  17699.497927   -104.570438  7  8  3 144       
PG06 -25420.823228   6355.392456   4649.666422    519.828628 10  1  7  96       
PG07 -21439.658190  -7624.018374  14513.681328    286.544146  6  7  7 119       
PG08   5093.147987 -25163.900090  -6032.962259    -94.147751  7  8  7 127       
PG09 -11211.350798 -11921.590423  20831.163070   -267.645667  5  8  4 117       
PG10  19217.082371   5400.193913 -17520.511931    -12.205159  5  4  4 107       
PG11 -18219.328342  12018.692593  15115.287018    -40.871749 10  8  8 118       
PG12   8690.405799  23727.788365  -8620.404877   -305.078238  8  5  5 122       
PG13 -13070.835707  23002.708612   -319.484553    425.822490  6  5  3 100       
PG14 -19691.690503  -7564.269837 -16200.065117    -82.055679 12  9  9 125       
PG15  -1615.174359  25639.435133  -6567.272176    -11.839567  9  3  8 152       
PG16   6094.799427 -15951.226110  19932.755846   -526.889142  6  5  8 104       
PG17 -16405.130524   2360.298559 -20331.522434    678.471925  7  5  6 130       
PG18  22619.166283   6056.116374  12672.723189    -24.566677 11  9  9 145       
PG19 -18167.242349  12607.044630 -14750.749468    238.283912  6  3  4 120       
PG20 -10634.928207  11339.845468  21550.759058    469.601918  5  5  4 148       
PG21   1875.449580 -15350.424521 -20883.612187    155.898187  6  5  8 126       
PG22  17333.630143 -15835.573170 -11826.504521    365.975737  6  5  6 106       
PG23  20231.260719  14589.525422  -9330.109057     -0.985860 11  7  5 103       
PG24   3362.395489  15590.160534 -21572.146364     56.045170  6  4  6  98       
PG25  16969.809448  20601.496015    780.168702    393.274983  6  8  6 119       
PG26  14445.656281  -7072.301963  21075.208870    235.982154  7  3  6 110       
PG27  12694.586538 -22538.882289   4767.106423    176.359592  3  5  6 132       
PG29   8484.864010  14188.615527  20726.024860   -567.689877  8  3  8 131       
PG30 -26440.739228    452.908837   3764.543198   -536.638184  6  7  5 104       
PG31  25261.355316  -6850.050030   5627.432726   -200.406822  8  5  4 112       
PG32  16978.517466  -5870.396675 -19346.286621   -298.541435  4  7  7 112       
EOF
